1 40903U 15049E   21251.82432691  .00004866  00000-0  10140-3 0  9994
2 40903  97.2288 306.0507 0013757  73.7126  39.2473 15.45965139335674
1 40903U 15049E   21251.82432691  .00004866  00000-0  10140-3 0  9994
2 40903  97.2288 306.0507 0013757  73.7126  39.2473 15.45965139335674
1 40903U 15049E   21252.14285425  .00004803  00000-0  10010-3 0  9998
2 40903  97.2287 306.3683 0013786  72.5472  12.0058 15.45967969335721
1 40903U 15049E   21252.39646010  .00004794  00000-0  99907-4 0  9998
2 40903  97.2283 306.6212 0013774  71.7435 343.3244 15.45970452335767
1 40903U 15049E   21252.39646010  .00004794  00000-0  99907-4 0  9998
2 40903  97.2283 306.6212 0013774  71.7435 343.3244 15.45970452335767
1 40903U 15049E   21252.79414664  .00004887  00000-0  10180-3 0  9998
2 40903  97.2281 307.0175 0013751  70.4066  36.5356 15.45974831335826
1 40903U 15049E   21253.11333558  .00004992  00000-0  10393-3 0  9990
2 40903  97.2281 307.3356 0013704  69.6963  12.5357 15.45978752335870
1 40903U 15049E   21253.43236494  .00004985  00000-0  10376-3 0  9999
2 40903  97.2278 307.6535 0013686  68.5973 348.0371 15.45982001335927
1 40903U 15049E   21253.76963674  .00005116  00000-0  10643-3 0  9996
2 40903  97.2277 307.9898 0013688  67.3615  65.1442 15.45986176335971
1 40903U 15049E   21253.76963674  .00005116  00000-0  10643-3 0  9996
2 40903  97.2277 307.9898 0013688  67.3615  65.1442 15.45986176335971
1 40903U 15049E   21254.14413394  .00005070  00000-0  10548-3 0  9991
2 40903  97.2276 308.3631 0013657  66.3635 349.0593 15.45989789336039
1 40903U 15049E   21254.41526135  .00005096  00000-0  10600-3 0  9996
2 40903  97.2275 308.6333 0013674  65.3494  58.0622 15.45992780336070
1 40903U 15049E   21254.41526135  .00005096  00000-0  10600-3 0  9996
2 40903  97.2275 308.6333 0013674  65.3494  58.0622 15.45992780336070
1 40903U 15049E   21254.80150323  .00005167  00000-0  10744-3 0  9999
2 40903  97.2272 309.0182 0013721  63.8856  47.7759 15.45997069336130
1 40903U 15049E   21254.80150323  .00005167  00000-0  10744-3 0  9999
2 40903  97.2272 309.0182 0013721  63.8856  47.7759 15.45997069336130
1 40903U 15049E   21255.11518183  .00005315  00000-0  11045-3 0  9996
2 40903  97.2272 309.3308 0013674  62.8744 353.4562 15.46001474336186
1 40903U 15049E   21255.45111412  .00005380  00000-0  11175-3 0  9993
2 40903  97.2271 309.6655 0013639  61.8372  62.9373 15.46005509336231
1 40903U 15049E   21255.45111412  .00005380  00000-0  11175-3 0  9993
2 40903  97.2271 309.6655 0013639  61.8372  62.9373 15.46005509336231
1 40903U 15049E   21255.76448861  .00005493  00000-0  11406-3 0  9990
2 40903  97.2271 309.9779 0013651  60.5863   7.1704 15.46009523336280
1 40903U 15049E   21255.90027031  .00005429  00000-0  11275-3 0  9991
2 40903  97.2270 310.1133 0013645  60.2623  42.7078 15.46010573336300
1 40903U 15049E   21256.08627859  .00005484  00000-0  11386-3 0  9999
2 40903  97.2270 310.2986 0013604  59.6987 357.8498 15.46013015336330
1 40903U 15049E   21256.40955068  .00005548  00000-0  11515-3 0  9996
2 40903  97.2267 310.6209 0013588  58.4103 357.1797 15.46017043336381
1 40903U 15049E   21256.55343950  .00005546  00000-0  11510-3 0  9996
2 40903  97.2267 310.7642 0013584  57.9132  77.9882 15.46018665336401
1 40903U 15049E   21256.74838434  .00005591  00000-0  11600-3 0  9993
2 40903  97.2266 310.9582 0013602  56.9353  83.2525 15.46021060336430
1 40903U 15049E   21256.93982699  .00005597  00000-0  11612-3 0  9996
2 40903  97.2266 311.1489 0013619  56.4946  68.5031 15.46023283336460
1 40903U 15049E   21257.11694582  .00005734  00000-0  11892-3 0  9991
2 40903  97.2268 311.3253 0013480  56.2946 333.8513 15.46026329336497
1 40903U 15049E   21257.38086896  .00005764  00000-0  11951-3 0  9992
2 40903  97.2266 311.5884 0013434  55.5490   2.5510 15.46029567336531
1 40903U 15049E   21257.38086896  .00005764  00000-0  11951-3 0  9992
2 40903  97.2266 311.5884 0013434  55.5490   2.5510 15.46029567336531
1 40903U 15049E   21257.78186733  .00005814  00000-0  12051-3 0  9995
2 40903  97.2265 311.9882 0013457  53.9732  74.5044 15.46034446336597
1 40903U 15049E   21257.78186733  .00005814  00000-0  12051-3 0  9995
2 40903  97.2265 311.9882 0013457  53.9732  74.5044 15.46034446336597
